IRIDIUM 159             
1 43578U 18061K   23297.00525832  .00000094  00000+0  26509-4 0  9999
2 43578  86.3916 100.9403 0002110  88.0047 272.1390 14.34217067274754
IRIDIUM 180             
1 43922U 19002A   23296.79544720  .00000465  00000+0  15879-3 0  9999
2 43922  86.4010  37.8787 0002378  94.6873 265.4594 14.34219790250336
IRIDIUM 176             
1 43923U 19002B   23297.04635773  .00000094  00000+0  11041-4 0  9994
2 43923  86.6134  37.8067 0002413  93.7507 266.3986 14.72268609256955
IRIDIUM 168             
1 43924U 19002C   23296.78910617  .00000458  00000+0  15656-3 0  9997
2 43924  86.4012  37.9312 0002333  92.4805 267.6658 14.34219950250318
IRIDIUM 173             
1 43925U 19002D   23297.19503304  .00000463  00000+0  15817-3 0  9990
2 43925  86.4008  37.6901 0002270  91.7725 268.3731 14.34219897250363
IRIDIUM 169             
1 43926U 19002E   23297.07920745  .00000633  00000+0  20047-3 0  9990
2 43926  86.4211  69.3529 0001323 319.7320  40.3780 14.38614557251189
IRIDIUM 172             
1 43927U 19002F   23297.53752846  .00000443  00000+0  15128-3 0  9990
2 43927  86.4008  37.5522 0002228  92.4535 267.6916 14.34220656250411
IRIDIUM 175             
1 43928U 19002G   23297.51601353  .00001643  00000+0  25645-3 0  9993
2 43928  86.1561  24.1401 0002207  93.1537 266.9932 14.72263092257014
